$$SOE
2460728.500000000, A.D. 2025-Feb-22 00:00:00.0000, 4.356468230631569E+07, 2.558268590064986E+08, -9.204732932303779E+07,
2460735.500000000, A.D. 2025-Mar-01 00:00:00.0000, 3.090529931939985E+07, 2.578748542798522E+08, -8.891657190226102E+07,
2460742.500000000, A.D. 2025-Mar-08 00:00:00.0000, 1.817347771064816E+07, 2.593179315874192E+08, -8.557719085240939E+07,
2460749.500000000, A.D. 2025-Mar-15 00:00:00.0000, 5.398700471286559E+06, 2.601470836208441E+08, -8.203516659528628E+07,
2460756.500000000, A.D. 2025-Mar-22 00:00:00.0000, -7.388898318195754E+06, 2.603545856720381E+08, -7.829706955004825E+07,
2460763.500000000, A.D. 2025-Mar-29 00:00:00.0000, -2.015858631747773E+07, 2.599340625108471E+08, -7.437006598961806E+07,
2460770.500000000, A.D. 2025-Apr-05 00:00:00.0000, -3.287909031158792E+07, 2.588805562034965E+08, -7.026192213575074E+07,
2460777.500000000, A.D. 2025-Apr-12 00:00:00.0000, -4.551866035162269E+07, 2.571905944433926E+08, -6.598100605962484E+07,
2460784.500000000, A.D. 2025-Apr-19 00:00:00.0000, -5.804514108009429E+07, 2.548622579128281E+08, -6.153628718330996E+07,
2460791.500000000, A.D. 2025-Apr-26 00:00:00.0000, -7.042605016164836E+07, 2.518952458144542E+08, -5.693733316369126E+07,
2460798.500000000, A.D. 2025-May-03 00:00:00.0000, -8.262866383544742E+07, 2.482909388741753E+08, -5.219430390847359E+07,
2460805.500000000, A.D. 2025-May-10 00:00:00.0000, -9.462010961847371E+07, 2.440524590488910E+08, -4.731794247043285E+07,
2460812.500000000, A.D. 2025-May-17 00:00:00.0000, -1.063674660985611E+08, 2.391847250696734E+08, -4.231956257876706E+07,
2460819.500000000, A.D. 2025-May-24 00:00:00.0000, -1.178378695261396E+08, 2.336945028907592E+08, -3.721103259301057E+07,
2460826.500000000, A.D. 2025-May-31 00:00:00.0000, -1.289986265680161E+08, 2.275904504416468E+08, -3.200475567612673E+07,
2460833.500000000, A.D. 2025-Jun-07 00:00:00.0000, -1.398173332980947E+08, 2.208831569486619E+08, -2.671364586150817E+07,
2460840.500000000, A.D. 2025-Jun-14 00:00:00.0000, -1.502620023459750E+08, 2.135851752192915E+08, -2.135109969618963E+07,
2460847.500000000, A.D. 2025-Jun-21 00:00:00.0000, -1.603011963946056E+08, 2.057110426730928E+08, -1.593096371536896E+07,
2460854.500000000, A.D. 2025-Jun-28 00:00:00.0000, -1.699041641813046E+08, 1.972772919239704E+08, -1.046749780438910E+07,
2460861.500000000, A.D. 2025-Jul-05 00:00:00.0000, -1.790409797013732E+08, 1.883024521757752E+08, -4.975334111143723E+06,
2460868.500000000, A.D. 2025-Jul-12 00:00:00.0000, -1.876826848365097E+08, 1.788070398076095E+08, 5.305684995588362E+05,
2460875.500000000, A.D. 2025-Jul-19 00:00:00.0000, -1.958014341111301E+08, 1.688135368151878E+08, 6.034974294977322E+06,
2460882.500000000, A.D. 2025-Jul-26 00:00:00.0000, -2.033706401453096E+08, 1.583463563897657E+08, 1.152242464504382E+07,
2460889.500000000, A.D. 2025-Aug-02 00:00:00.0000, -2.103651184112948E+08, 1.474317951200854E+08, 1.697729588104860E+07,
2460896.500000000, A.D. 2025-Aug-09 00:00:00.0000, -2.167612298490671E+08, 1.360979714120128E+08, 2.238386073724671E+07,
2460903.500000000, A.D. 2025-Aug-16 00:00:00.0000, -2.225370197682319E+08, 1.243747498361982E+08, 2.772635298865885E+07,
2460910.500000000, A.D. 2025-Aug-23 00:00:00.0000, -2.276723511955301E+08, 1.122936513750598E+08, 3.298903481360920E+07,
2460917.500000000, A.D. 2025-Aug-30 00:00:00.0000, -2.321490307643895E+08, 9.988775043261233E+07, 3.815626639458087E+07,
2460924.500000000, A.D. 2025-Sep-06 00:00:00.0000, -2.359509269965304E+08, 8.719155996108469E+07, 4.321257739119944E+07,
2460931.500000000, A.D. 2025-Sep-13 00:00:00.0000, -2.390640811262023E+08, 7.424090279172365E+07, 4.814273960464734E+07,
2460938.500000000, A.D. 2025-Sep-20 00:00:00.0000, -2.414768057366568E+08, 6.107276832347611E+07, 5.293183972550055E+07,
2460945.500000000, A.D. 2025-Sep-27 00:00:00.0000, -2.431797687589342E+08, 4.772515867835037E+07, 5.756535160614994E+07,
2460952.500000000, A.D. 2025-Oct-04 00:00:00.0000, -2.441660636070012E+08, 3.423692603500342E+07, 6.202920754388697E+07,
2460959.500000000, A.D. 2025-Oct-11 00:00:00.0000, -2.444312647768464E+08, 2.064760157145180E+07, 6.630986779251736E+07,
2460966.500000000, A.D. 2025-Oct-18 00:00:00.0000, -2.439734677564898E+08, 6.997217295412939E+06, 7.039438752611810E+07,
2460973.500000000, A.D. 2025-Oct-25 00:00:00.0000, -2.427933124376342E+08, -6.673877537567899E+06, 7.427048053475641E+07,
2460980.500000000, A.D. 2025-Nov-01 00:00:00.0000, -2.408939895449958E+08, -2.032520359942405E+07, 7.792657897306304E+07,
2460987.500000000, A.D. 2025-Nov-08 00:00:00.0000, -2.382812298343961E+08, -3.391634040550465E+07, 8.135188851357761E+07,
2460994.500000000, A.D. 2025-Nov-15 00:00:00.0000, -2.349632759352533E+08, -4.740711512029210E+07, 8.453643828519741E+07,
2461001.500000000, A.D. 2025-Nov-22 00:00:00.0000, -2.309508367168052E+08, -6.075778915464952E+07, 8.747112504713596E+07,
2461008.500000000, A.D. 2025-Nov-29 00:00:00.0000, -2.262570248836695E+08, -7.392923959818248E+07, 9.014775128467134E+07,
2461015.500000000, A.D. 2025-Dec-06 00:00:00.0000, -2.208972808804314E+08, -8.688313386367828E+07, 9.255905712583762E+07,
2461022.500000000, A.D. 2025-Dec-13 00:00:00.0000, -2.148892836873884E+08, -9.958209924106102E+07, 9.469874557196125E+07,
2461029.500000000, A.D. 2025-Dec-20 00:00:00.0000, -2.082528462075531E+08, -1.119898847882197E+08, 9.656150070351392E+07,
2461036.500000000, A.D. 2025-Dec-27 00:00:00.0000, -2.010097976539821E+08, -1.240715115765885E+08, 9.814299914873843E+07,
2461043.500000000, A.D. 2026-Jan-03 00:00:00.0000, -1.931838558496273E+08, -1.357934107121152E+08, 9.943991495533898E+07,
2461050.500000000, A.D. 2026-Jan-10 00:00:00.0000, -1.848004908839578E+08, -1.471235488380163E+08, 1.004499179498788E+08,
2461057.500000000, A.D. 2026-Jan-17 00:00:00.0000, -1.758867815230419E+08, -1.580315404581678E+08, 1.011716658048585E+08,
2461064.500000000, A.D. 2026-Jan-24 00:00:00.0000, -1.664712659578218E+08, -1.684887465158399E+08, 1.016047901375851E+08,
2461071.500000000, A.D. 2026-Jan-31 00:00:00.0000, -1.565837885236004E+08, -1.784683589047501E+08, 1.017498770298165E+08,
2461078.500000000, A.D. 2026-Feb-07 00:00:00.0000, -1.462553439499656E+08, -1.879454708504242E+08, 1.016084424025795E+08,
2461085.500000000, A.D. 2026-Feb-14 00:00:00.0000, -1.355179204475047E+08, -1.968971332581410E+08, 1.011829027101416E+08,
2461092.500000000, A.D. 2026-Feb-21 00:00:00.0000, -1.244043427180981E+08, -2.053023967153858E+08, 1.004765414850478E+08,
2461099.500000000, A.D. 2026-Feb-28 00:00:00.0000, -1.129481173414901E+08, -2.131423384246413E+08, 9.949347246676031E+07,
2461106.500000000, A.D. 2026-Mar-07 00:00:00.0000, -1.011832838398697E+08, -2.204000765913906E+08, 9.823859988915043E+07,
2461113.500000000, A.D. 2026-Mar-14 00:00:00.0000, -8.914426975371708E+07, -2.270607753038158E+08, 9.671757602928223E+07,
2461120.500000000, A.D. 2026-Mar-21 00:00:00.0000, -7.686574891679941E+07, -2.331116378128543E+08, 9.493675663169482E+07,
2461127.500000000, A.D. 2026-Mar-28 00:00:00.0000, -6.438250576559433E+07, -2.385418880648550E+08, 9.290315499651498E+07,
2461134.500000000, A.D. 2026-Apr-04 00:00:00.0000, -5.172930696602450E+07, -2.433427423872315E+08, 9.062439519905795E+07,
2461141.500000000, A.D. 2026-Apr-11 00:00:00.0000, -3.894078061934941E+07, -2.475073726560474E+08, 8.810866484354134E+07,
2461148.500000000, A.D. 2026-Apr-18 00:00:00.0000, -2.605130328343347E+07, -2.510308619367054E+08, 8.536466775474024E+07,
2461155.500000000, A.D. 2026-Apr-25 00:00:00.0000, -1.309489502539392E+07, -2.539101535683325E+08, 8.240157698641849E+07,
2461162.500000000, A.D. 2026-May-02 00:00:00.0000, -1.051226169958776E+05, -2.561439946931047E+08, 7.922898848718825E+07,
2461169.500000000, A.D. 2026-May-09 00:00:00.0000, 1.288498921538146E+07, -2.577328752384781E+08, 7.585687571251139E+07,
2461176.500000000, A.D. 2026-May-16 00:00:00.0000, 2.584303892407043E+07, -2.586789631128892E+08, 7.229554542079055E+07,
2461183.500000000, A.D. 2026-May-23 00:00:00.0000, 3.873732185506245E+07, -2.589860354403740E+08, 6.855559495052931E+07,
2461190.500000000, A.D. 2026-May-30 00:00:00.0000, 5.153689468697344E+07, -2.586594063033431E+08, 6.464787137236843E+07,
2461197.500000000, A.D. 2026-Jun-06 00:00:00.0000, 6.421163056194737E+07, -2.577058549914410E+08, 6.058343241619599E+07,
2461204.500000000, A.D. 2026-Jun-13 00:00:00.0000, 7.673226891366909E+07, -2.561335552214650E+08, 5.637350896021079E+07,
2461211.500000000, A.D. 2026-Jun-20 00:00:00.0000, 8.907045986958796E+07, -2.539520030063153E+08, 5.202946944491042E+07,
2461218.500000000, A.D. 2026-Jun-27 00:00:00.0000, 1.011988019350714E+08, -2.511719440515185E+08, 4.756278638759109E+07,
2461225.500000000, A.D. 2026-Jul-04 00:00:00.0000, 1.130908733857025E+08, -2.478053019286115E+08, 4.298500495343385E+07,
2461232.500000000, A.D. 2026-Jul-11 00:00:00.0000, 1.247212580581807E+08, -2.438651075709652E+08, 3.830771354283632E+07,
2461239.500000000, A.D. 2026-Jul-18 00:00:00.0000, 1.360655660678780E+08, -2.393654304189976E+08, 3.354251635741919E+07,
2461246.500000000, A.D. 2026-Jul-25 00:00:00.0000, 1.471004499034767E+08, -2.343213114976469E+08, 2.870100788778798E+07,
2461253.500000000, A.D. 2026-Aug-01 00:00:00.0000, 1.578036163663918E+08, -2.287486986876146E+08, 2.379474924321038E+07,
2461260.500000000, A.D. 2026-Aug-08 00:00:00.0000, 1.681538349942086E+08, -2.226643843796058E+08, 1.883524622666214E+07,
2461267.500000000, A.D. 2026-Aug-15 00:00:00.0000, 1.781309438126096E+08, -2.160859451810750E+08, 1.383392908593880E+07,
2461274.500000000, A.D. 2026-Aug-22 00:00:00.0000, 1.877158520758369E+08, -2.090316825570071E+08, 8.802134042021379E+06,
2461281.500000000, A.D. 2026-Aug-29 00:00:00.0000, 1.968905381020944E+08, -2.015205658625033E+08, 3.751086612803698E+06,
2461288.500000000, A.D. 2026-Sep-05 00:00:00.0000, 2.056380446937619E+08, -1.935721806919848E+08, -1.308113793678090E+06,
2461295.500000000, A.D. 2026-Sep-12 00:00:00.0000, 2.139424749112642E+08, -1.852066800671388E+08, -6.364508145405598E+06,
$$EOE